date:2024-08-30T03:18:21+00:00
validtle:1
satid:55576
launchyear:2023
epoch:24241.96029407
epochday:241
tleage:2
tleclassification:U
active:1
name:STARLINK-5751
meananomly:91.1721
meanmotion:15.0253
rightascension:0.0000
declination:0.0000
semimajoraxis:6937.2305298719
altitudeatperigee:558
altitudeatapogee:560
inclination:43.0023
eccentricity:0.0001646
argumentofperigree:268.8933
nickname:STARLINK-5751
idesg:23020H  
cosparid:2023-020H
altkm:558.89514878214
velkms:7.5838041257425
velkmh:27302
onumepoch:8532
onumnow:128213.73
otype:1
otypedesc:Low Earth Orbit (LEO)
status:1
timestamp:2024-08-28T23:02:49+00:00
nowjuliandate:2460552.6377495
nowepochdate:24243.1377430556
TLE:
STARLINK-5751
1 55576U 23020H   24241.96029407 -.00000059  00000+0  10696-4 0  9995
2 55576  43.0023 129.0874 0001646 268.8933  91.1721 15.02532125 85324